STARLINK-35509          
1 66199U 25243Y   25324.25002315 -.00038143  00000+0 -68100-3 0  9999
2 66199  53.1600  34.2929 0001239  83.1090  78.0006 15.49312635  4973
STARLINK-35551          
1 66200U 25243Z   25324.25002315 -.00042847  00000+0 -76614-3 0  9997
2 66200  53.1603  34.3009 0001004  62.1536  95.1013 15.49324015  4974
STARLINK-35543          
1 66201U 25243AA  25324.25002315 -.00058110  00000+0 -10438-2 0  9999
2 66201  53.1605  34.3043 0001087  65.2966  90.0493 15.49328499  5031
STARLINK-35534          
1 66202U 25243AB  25324.25002315 -.00056508  00000+0 -10146-2 0  9995
2 66202  53.1603  34.3086 0001127  63.8424  89.5867 15.49327760  4975
STARLINK-35548          
1 66203U 25243AC  25324.25002315 -.00046366  00000+0 -83008-3 0  9995
2 66203  53.1602  34.3131 0001087  60.8809  90.6256 15.49324825  5037
STARLINK-35490          
1 66204U 25243AD  25324.25002315 -.00056977  00000+0 -10231-2 0  9992
2 66204  53.1599  34.3206 0001164  62.1970  85.4798 15.49328639  4912
STARLINK-35748          
1 66206U 25244A   25324.25002315  .00031027  00000+0  78321-3 0  9997
2 66206  53.1603  22.1486 0001310  90.0667  99.1415 15.39592594  4641
STARLINK-35747          
1 66207U 25244B   25324.23036918  .00167530  00000+0  11239-2 0  9995
2 66207  53.1602  20.9486 0001253  88.0554 272.0610 15.74224173  4862
STARLINK-35751          
1 66208U 25244C   25324.25002315  .00031962  00000+0  80618-3 0  9999
2 66208  53.1603  22.1445 0001916  83.2551 107.7728 15.39601143  4752
STARLINK-35750          
1 66209U 25244D   25324.25002315 -.00385377  00000+0 -10056-1 0  9991
2 66209  53.1603  22.0926 0000998  47.9843 168.7207 15.39812433  4728
STARLINK-35740          
1 66210U 25244E   25324.25002315 -.00401030  00000+0 -10483-1 0  9992
2 66210  53.1604  22.0964 0001033  51.3460 163.5192 15.39819142  4593
STARLINK-35723          
1 66211U 25244F   25324.25002315 -.02037380  00000+0 -50971-1 0  9994
2 66211  53.1599  22.0531 0001489  85.8324 150.0436 15.43114520  4644
