CCSDS_OMM_VERS = 2.0
CREATION_DATE  = 
ORIGINATOR     = 

OBJECT_NAME    = STARLINK-35509
OBJECT_ID      = 2025-243Y
CENTER_NAME    = EARTH
REF_FRAME      = TEME
TIME_SYSTEM    = UTC
MEAN_ELEMENT_THEORY = SGP/SGP4

EPOCH          = 2025-11-20T06:00:02.000160
MEAN_MOTION    = 15.49312635
ECCENTRICITY   = .00012397
INCLINATION    = 53.1600
RA_OF_ASC_NODE = 34.2929
ARG_OF_PERICENTER = 83.1090
MEAN_ANOMALY   = 78.0006

EPHEMERIS_TYPE = 0
CLASSIFICATION_TYPE = U
NORAD_CAT_ID   = 66199
ELEMENT_SET_NO = 999
REV_AT_EPOCH   = 497
BSTAR          = -.6809961E-3
MEAN_MOTION_DOT = -.38143E-3
MEAN_MOTION_DDOT = 0

CCSDS_OMM_VERS = 2.0
CREATION_DATE  = 
ORIGINATOR     = 

OBJECT_NAME    = STARLINK-35551
OBJECT_ID      = 2025-243Z
CENTER_NAME    = EARTH
REF_FRAME      = TEME
TIME_SYSTEM    = UTC
MEAN_ELEMENT_THEORY = SGP/SGP4

EPOCH          = 2025-11-20T06:00:02.000160
MEAN_MOTION    = 15.49324015
ECCENTRICITY   = .00010042
INCLINATION    = 53.1603
RA_OF_ASC_NODE = 34.3009
ARG_OF_PERICENTER = 62.1536
MEAN_ANOMALY   = 95.1013

EPHEMERIS_TYPE = 0
CLASSIFICATION_TYPE = U
NORAD_CAT_ID   = 66200
ELEMENT_SET_NO = 999
REV_AT_EPOCH   = 497
BSTAR          = -.76614476E-3
MEAN_MOTION_DOT = -.42847E-3
MEAN_MOTION_DDOT = 0

CCSDS_OMM_VERS = 2.0
CREATION_DATE  = 
ORIGINATOR     = 

OBJECT_NAME    = STARLINK-35543
OBJECT_ID      = 2025-243AA
CENTER_NAME    = EARTH
REF_FRAME      = TEME
TIME_SYSTEM    = UTC
MEAN_ELEMENT_THEORY = SGP/SGP4

EPOCH          = 2025-11-20T06:00:02.000160
MEAN_MOTION    = 15.49328499
ECCENTRICITY   = .00010871
INCLINATION    = 53.1605
RA_OF_ASC_NODE = 34.3043
ARG_OF_PERICENTER = 65.2966
MEAN_ANOMALY   = 90.0493

EPHEMERIS_TYPE = 0
CLASSIFICATION_TYPE = U
NORAD_CAT_ID   = 66201
ELEMENT_SET_NO = 999
REV_AT_EPOCH   = 503
BSTAR          = -.10438046E-2
MEAN_MOTION_DOT = -.5811E-3
MEAN_MOTION_DDOT = 0

CCSDS_OMM_VERS = 2.0
CREATION_DATE  = 
ORIGINATOR     = 

OBJECT_NAME    = STARLINK-35534
OBJECT_ID      = 2025-243AB
CENTER_NAME    = EARTH
REF_FRAME      = TEME
TIME_SYSTEM    = UTC
MEAN_ELEMENT_THEORY = SGP/SGP4

EPOCH          = 2025-11-20T06:00:02.000160
MEAN_MOTION    = 15.49327760
ECCENTRICITY   = .00011272
INCLINATION    = 53.1603
RA_OF_ASC_NODE = 34.3086
ARG_OF_PERICENTER = 63.8424
MEAN_ANOMALY   = 89.5867

EPHEMERIS_TYPE = 0
CLASSIFICATION_TYPE = U
NORAD_CAT_ID   = 66202
ELEMENT_SET_NO = 999
REV_AT_EPOCH   = 497
BSTAR          = -.10146307E-2
MEAN_MOTION_DOT = -.56508E-3
MEAN_MOTION_DDOT = 0

CCSDS_OMM_VERS = 2.0
CREATION_DATE  = 
ORIGINATOR     = 

OBJECT_NAME    = STARLINK-35548
OBJECT_ID      = 2025-243AC
CENTER_NAME    = EARTH
REF_FRAME      = TEME
TIME_SYSTEM    = UTC
MEAN_ELEMENT_THEORY = SGP/SGP4

EPOCH          = 2025-11-20T06:00:02.000160
MEAN_MOTION    = 15.49324825
ECCENTRICITY   = .00010874
INCLINATION    = 53.1602
RA_OF_ASC_NODE = 34.3131
ARG_OF_PERICENTER = 60.8809
MEAN_ANOMALY   = 90.6256

EPHEMERIS_TYPE = 0
CLASSIFICATION_TYPE = U
NORAD_CAT_ID   = 66203
ELEMENT_SET_NO = 999
REV_AT_EPOCH   = 503
BSTAR          = -.83007553E-3
MEAN_MOTION_DOT = -.46366E-3
MEAN_MOTION_DDOT = 0

CCSDS_OMM_VERS = 2.0
CREATION_DATE  = 
ORIGINATOR     = 

OBJECT_NAME    = STARLINK-35490
OBJECT_ID      = 2025-243AD
CENTER_NAME    = EARTH
REF_FRAME      = TEME
TIME_SYSTEM    = UTC
MEAN_ELEMENT_THEORY = SGP/SGP4

EPOCH          = 2025-11-20T06:00:02.000160
MEAN_MOTION    = 15.49328639
ECCENTRICITY   = .00011642
INCLINATION    = 53.1599
RA_OF_ASC_NODE = 34.3206
ARG_OF_PERICENTER = 62.1970
MEAN_ANOMALY   = 85.4798

EPHEMERIS_TYPE = 0
CLASSIFICATION_TYPE = U
NORAD_CAT_ID   = 66204
ELEMENT_SET_NO = 999
REV_AT_EPOCH   = 491
BSTAR          = -.10231387E-2
MEAN_MOTION_DOT = -.56977E-3
MEAN_MOTION_DDOT = 0

CCSDS_OMM_VERS = 2.0
CREATION_DATE  = 
ORIGINATOR     = 

OBJECT_NAME    = STARLINK-35748
OBJECT_ID      = 2025-244A
CENTER_NAME    = EARTH
REF_FRAME      = TEME
TIME_SYSTEM    = UTC
MEAN_ELEMENT_THEORY = SGP/SGP4

EPOCH          = 2025-11-20T06:00:02.000160
MEAN_MOTION    = 15.39592594
ECCENTRICITY   = .00013104
INCLINATION    = 53.1603
RA_OF_ASC_NODE = 22.1486
ARG_OF_PERICENTER = 90.0667
MEAN_ANOMALY   = 99.1415

EPHEMERIS_TYPE = 0
CLASSIFICATION_TYPE = U
NORAD_CAT_ID   = 66206
ELEMENT_SET_NO = 999
REV_AT_EPOCH   = 464
BSTAR          = .78321002E-3
MEAN_MOTION_DOT = .31027E-3
MEAN_MOTION_DDOT = 0

CCSDS_OMM_VERS = 2.0
CREATION_DATE  = 
ORIGINATOR     = 

OBJECT_NAME    = STARLINK-35747
OBJECT_ID      = 2025-244B
CENTER_NAME    = EARTH
REF_FRAME      = TEME
TIME_SYSTEM    = UTC
MEAN_ELEMENT_THEORY = SGP/SGP4

EPOCH          = 2025-11-20T05:31:43.897152
MEAN_MOTION    = 15.74224173
ECCENTRICITY   = .00012535
INCLINATION    = 53.1602
RA_OF_ASC_NODE = 20.9486
ARG_OF_PERICENTER = 88.0554
MEAN_ANOMALY   = 272.0610

EPHEMERIS_TYPE = 0
CLASSIFICATION_TYPE = U
NORAD_CAT_ID   = 66207
ELEMENT_SET_NO = 999
REV_AT_EPOCH   = 486
BSTAR          = .11238696E-2
MEAN_MOTION_DOT = .16753E-2
MEAN_MOTION_DDOT = 0

CCSDS_OMM_VERS = 2.0
CREATION_DATE  = 
ORIGINATOR     = 

OBJECT_NAME    = STARLINK-35751
OBJECT_ID      = 2025-244C
CENTER_NAME    = EARTH
REF_FRAME      = TEME
TIME_SYSTEM    = UTC
MEAN_ELEMENT_THEORY = SGP/SGP4

EPOCH          = 2025-11-20T06:00:02.000160
MEAN_MOTION    = 15.39601143
ECCENTRICITY   = .00019166
INCLINATION    = 53.1603
RA_OF_ASC_NODE = 22.1445
ARG_OF_PERICENTER = 83.2551
MEAN_ANOMALY   = 107.7728

EPHEMERIS_TYPE = 0
CLASSIFICATION_TYPE = U
NORAD_CAT_ID   = 66208
ELEMENT_SET_NO = 999
REV_AT_EPOCH   = 475
BSTAR          = .80617808E-3
MEAN_MOTION_DOT = .31962E-3
MEAN_MOTION_DDOT = 0

CCSDS_OMM_VERS = 2.0
CREATION_DATE  = 
ORIGINATOR     = 

OBJECT_NAME    = STARLINK-35750
OBJECT_ID      = 2025-244D
CENTER_NAME    = EARTH
REF_FRAME      = TEME
TIME_SYSTEM    = UTC
MEAN_ELEMENT_THEORY = SGP/SGP4

EPOCH          = 2025-11-20T06:00:02.000160
MEAN_MOTION    = 15.39812433
ECCENTRICITY   = .0000998
INCLINATION    = 53.1603
RA_OF_ASC_NODE = 22.0926
ARG_OF_PERICENTER = 47.9843
MEAN_ANOMALY   = 168.7207

EPHEMERIS_TYPE = 0
CLASSIFICATION_TYPE = U
NORAD_CAT_ID   = 66209
ELEMENT_SET_NO = 999
REV_AT_EPOCH   = 472
BSTAR          = -.10055636E-1
MEAN_MOTION_DOT = -.385377E-2
MEAN_MOTION_DDOT = 0

CCSDS_OMM_VERS = 2.0
CREATION_DATE  = 
ORIGINATOR     = 

OBJECT_NAME    = STARLINK-35740
OBJECT_ID      = 2025-244E
CENTER_NAME    = EARTH
REF_FRAME      = TEME
TIME_SYSTEM    = UTC
MEAN_ELEMENT_THEORY = SGP/SGP4

EPOCH          = 2025-11-20T06:00:02.000160
MEAN_MOTION    = 15.39819142
ECCENTRICITY   = .00010339
INCLINATION    = 53.1604
RA_OF_ASC_NODE = 22.0964
ARG_OF_PERICENTER = 51.3460
MEAN_ANOMALY   = 163.5192

EPHEMERIS_TYPE = 0
CLASSIFICATION_TYPE = U
NORAD_CAT_ID   = 66210
ELEMENT_SET_NO = 999
REV_AT_EPOCH   = 459
BSTAR          = -.10483334E-1
MEAN_MOTION_DOT = -.40103E-2
MEAN_MOTION_DDOT = 0

CCSDS_OMM_VERS = 2.0
CREATION_DATE  = 
ORIGINATOR     = 

OBJECT_NAME    = STARLINK-35723
OBJECT_ID      = 2025-244F
CENTER_NAME    = EARTH
REF_FRAME      = TEME
TIME_SYSTEM    = UTC
MEAN_ELEMENT_THEORY = SGP/SGP4

EPOCH          = 2025-11-20T06:00:02.000160
MEAN_MOTION    = 15.43114520
ECCENTRICITY   = .00014892
INCLINATION    = 53.1599
RA_OF_ASC_NODE = 22.0531
ARG_OF_PERICENTER = 85.8324
MEAN_ANOMALY   = 150.0436

EPHEMERIS_TYPE = 0
CLASSIFICATION_TYPE = U
NORAD_CAT_ID   = 66211
ELEMENT_SET_NO = 999
REV_AT_EPOCH   = 464
BSTAR          = -.50970698E-1
MEAN_MOTION_DOT = -.203738E-1
MEAN_MOTION_DDOT = 0

